{
  "norad_id": 55764,
  "name": "STARLINK-5499",
  "history": [
    {
      "epoch": "2026-03-28T16:12:05.858784",
      "apogee_km": 574.0284057586641,
      "perigee_km": 570.0267789929585,
      "latitude_deg": -48.526819193704384,
      "longitude_deg": -178.79349024011753,
      "semi_major_axis_km": 6950.1645923758115,
      "eccentricity": 0.00028788,
      "inclination_deg": 70.0009,
      "raan_deg": 176.7211,
      "arg_perigee_deg": 262.81,
      "mean_anomaly_deg": 97.2732,
      "mean_motion_rev_day": 14.98339151
    }
  ]
}