{"fetched_at":"2026-03-29T16:36:15Z","count":15609,"tles":[{"name":"STARLINK-5499","line1":"1 55764U 23028Z   26087.67506781  .00000051  00000+0  12078-4 0  9992","line2":"2 55764  70.0009 176.7211 0002878 262.8100  97.2732 14.98339151169374","category":"Starlink"}]}